{"type": "FeatureCollection", "features": [ {"type": "Feature", "properties": {"norad_id": 66940, "name": "STARLINK-36121", "group": "last-30-days", "lat": 52.220491678896394, "lon": 80.91334910404963, "alt_km": 408.56538710229324, "timestamp": "2025-12-27T16:33:28.974487+00:00", "meta": {"OBJECT_NAME": "STARLINK-36121", "OBJECT_ID": "2025-286R", "EPOCH": "2025-12-27T12:00:02.000160", "MEAN_MOTION": 15.51053459, "ECCENTRICITY": 0.0001868, "INCLINATION": 53.1597, "RA_OF_ASC_NODE": 337.1214, "ARG_OF_PERICENTER": 49.3627, "MEAN_ANOMALY": 68.9389, "EPHEMERIS_TYPE": 0, "CLASSIFICATION_TYPE": "U", "NORAD_CAT_ID": 66940, "ELEMENT_SET_NO": 999, "REV_AT_EPOCH": 436, "BSTAR": -0.043206, "MEAN_MOTION_DOT": -0.02251045, "MEAN_MOTION_DDOT": 0}, "tle": {"line1": "1 66940U 25286R   25361.50002315 -.02251045  00000+0 -43206-1 0  9997", "line2": "2 66940  53.1597 337.1214 0001868  49.3627  68.9389 15.51053459  4366"}}, "geometry": {"type": "Point", "coordinates": [80.91334910404963, 52.220491678896394]}}, {"type": "Feature", "properties": {"norad_id": 66941, "name": "STARLINK-36088", "group": "last-30-days", "lat": 37.8279446416592, "lon": 120.54722336147688, "alt_km": 405.3674757176241, "timestamp": "2025-12-27T16:33:28.974497+00:00", "meta": {"OBJECT_NAME": "STARLINK-36088", "OBJECT_ID": "2025-286S", "EPOCH": "2025-12-27T12:00:02.000160", "MEAN_MOTION": 15.52885207, "ECCENTRICITY": 0.0001454, "INCLINATION": 53.1597, "RA_OF_ASC_NODE": 337.0607, "ARG_OF_PERICENTER": 72.359, "MEAN_ANOMALY": 75.6226, "EPHEMERIS_TYPE": 0, "CLASSIFICATION_TYPE": "U", "NORAD_CAT_ID": 66941, "ELEMENT_SET_NO": 999, "REV_AT_EPOCH": 436, "BSTAR": -0.036096, "MEAN_MOTION_DOT": -0.0203561, "MEAN_MOTION_DDOT": 0}, "tle": {"line1": "1 66941U 25286S   25361.50002315 -.02035610  00000+0 -36096-1 0  9995", "line2": "2 66941  53.1597 337.0607 0001454  72.3590  75.6226 15.52885207  4368"}}, "geometry": {"type": "Point", "coordinates": [120.54722336147688, 37.8279446416592]}}, {"type": "Feature", "properties": {"norad_id": 66942, "name": "STARLINK-36100", "group": "last-30-days", "lat": 51.79686258831634, "lon": 83.91254978502887, "alt_km": 408.8469609668282, "timestamp": "2025-12-27T16:33:28.974507+00:00", "meta": {"OBJECT_NAME": "STARLINK-36100", "OBJECT_ID": "2025-286T", "EPOCH": "2025-12-27T12:00:02.000160", "MEAN_MOTION": 15.50953943, "ECCENTRICITY": 0.0001504, "INCLINATION": 53.1596, "RA_OF_ASC_NODE": 337.1169, "ARG_OF_PERICENTER": 49.8796, "MEAN_ANOMALY": 70.3568, "EPHEMERIS_TYPE": 0, "CLASSIFICATION_TYPE": "U", "NORAD_CAT_ID": 66942, "ELEMENT_SET_NO": 999, "REV_AT_EPOCH": 429, "BSTAR": -0.039389, "MEAN_MOTION_DOT": -0.0206732, "MEAN_MOTION_DDOT": 0}, "tle": {"line1": "1 66942U 25286T   25361.50002315 -.02067320  00000+0 -39389-1 0  9997", "line2": "2 66942  53.1596 337.1169 0001504  49.8796  70.3568 15.50953943  4299"}}, "geometry": {"type": "Point", "coordinates": [83.91254978502887, 51.79686258831634]}}, {"type": "Feature", "properties": {"norad_id": 66943, "name": "STARLINK-36109", "group": "last-30-days", "lat": 51.29202505076488, "lon": 86.88490989949223, "alt_km": 408.9082831646738, "timestamp": "2025-12-27T16:33:28.974517+00:00", "meta": {"OBJECT_NAME": "STARLINK-36109", "OBJECT_ID": "2025-286U", "EPOCH": "2025-12-27T12:00:02.000160", "MEAN_MOTION": 15.50955357, "ECCENTRICITY": 0.0001533, "INCLINATION": 53.1595, "RA_OF_ASC_NODE": 337.1128, "ARG_OF_PERICENTER": 51.288, "MEAN_ANOMALY": 70.8627, "EPHEMERIS_TYPE": 0, "CLASSIFICATION_TYPE": "U", "NORAD_CAT_ID": 66943, "ELEMENT_SET_NO": 999, "REV_AT_EPOCH": 429, "BSTAR": -0.039409, "MEAN_MOTION_DOT": -0.02068369, "MEAN_MOTION_DDOT": 0}, "tle": {"line1": "1 66943U 25286U   25361.50002315 -.02068369  00000+0 -39409-1 0  9995", "line2": "2 66943  53.1595 337.1128 0001533  51.2880  70.8627 15.50955357  4299"}}, "geometry": {"type": "Point", "coordinates": [86.88490989949223, 51.29202505076488]}}, {"type": "Feature", "properties": {"norad_id": 66944, "name": "STARLINK-36112", "group": "last-30-days", "lat": 50.71427753204929, "lon": 89.78439856679931, "alt_km": 408.9349685282168, "timestamp": "2025-12-27T16:33:28.974529+00:00", "meta": {"OBJECT_NAME": "STARLINK-36112", "OBJECT_ID": "2025-286V", "EPOCH": "2025-12-27T12:00:02.000160", "MEAN_MOTION": 15.50950282, "ECCENTRICITY": 0.0001368, "INCLINATION": 53.1595, "RA_OF_ASC_NODE": 337.1086, "ARG_OF_PERICENTER": 63.9907, "MEAN_ANOMALY": 60.0768, "EPHEMERIS_TYPE": 0, "CLASSIFICATION_TYPE": "U", "NORAD_CAT_ID": 66944, "ELEMENT_SET_NO": 999, "REV_AT_EPOCH": 436, "BSTAR": -0.038963, "MEAN_MOTION_DOT": -0.02047071, "MEAN_MOTION_DDOT": 0}, "tle": {"line1": "1 66944U 25286V   25361.50002315 -.02047071  00000+0 -38963-1 0  9997", "line2": "2 66944  53.1595 337.1086 0001368  63.9907  60.0768 15.50950282  4366"}}, "geometry": {"type": "Point", "coordinates": [89.78439856679931, 50.71427753204929]}}, {"type": "Feature", "properties": {"norad_id": 66945, "name": "STARLINK-36110", "group": "last-30-days", "lat": 50.06549455912415, "lon": 92.61145200613002, "alt_km": 408.9903876036651, "timestamp": "2025-12-27T16:33:28.974539+00:00", "meta": {"OBJECT_NAME": "STARLINK-36110", "OBJECT_ID": "2025-286W", "EPOCH": "2025-12-27T12:00:02.000160", "MEAN_MOTION": 15.50937567, "ECCENTRICITY": 0.0001376, "INCLINATION": 53.1593, "RA_OF_ASC_NODE": 337.1047, "ARG_OF_PERICENTER": 70.9678, "MEAN_ANOMALY": 55.0214, "EPHEMERIS_TYPE": 0, "CLASSIFICATION_TYPE": "U", "NORAD_CAT_ID": 66945, "ELEMENT_SET_NO": 999, "REV_AT_EPOCH": 436, "BSTAR": -0.038612, "MEAN_MOTION_DOT": -0.02029791, "MEAN_MOTION_DDOT": 0}, "tle": {"line1": "1 66945U 25286W   25361.50002315 -.02029791  00000+0 -38612-1 0  9998", "line2": "2 66945  53.1593 337.1047 0001376  70.9678  55.0214 15.50937567  4365"}}, "geometry": {"type": "Point", "coordinates": [92.61145200613002, 50.06549455912415]}}, {"type": "Feature", "properties": {"norad_id": 66946, "name": "STARLINK-36115", "group": "last-30-days", "lat": 49.34906101619356, "lon": 95.36184238638275, "alt_km": 409.04772451774625, "timestamp": "2025-12-27T16:33:28.974549+00:00", "meta": {"OBJECT_NAME": "STARLINK-36115", "OBJECT_ID": "2025-286X", "EPOCH": "2025-12-27T12:00:02.000160", "MEAN_MOTION": 15.50940082, "ECCENTRICITY": 0.0001464, "INCLINATION": 53.1592, "RA_OF_ASC_NODE": 337.1006, "ARG_OF_PERICENTER": 71.9735, "MEAN_ANOMALY": 55.9305, "EPHEMERIS_TYPE": 0, "CLASSIFICATION_TYPE": "U", "NORAD_CAT_ID": 66946, "ELEMENT_SET_NO": 999, "REV_AT_EPOCH": 436, "BSTAR": -0.038676, "MEAN_MOTION_DOT": -0.02033036, "MEAN_MOTION_DDOT": 0}, "tle": {"line1": "1 66946U 25286X   25361.50002315 -.02033036  00000+0 -38676-1 0  9996", "line2": "2 66946  53.1592 337.1006 0001464  71.9735  55.9305 15.50940082  4369"}}, "geometry": {"type": "Point", "coordinates": [95.36184238638275, 49.34906101619356]}}, {"type": "Feature", "properties": {"norad_id": 66947, "name": "STARLINK-36089", "group": "last-30-days", "lat": 47.72922800583932, "lon": 100.61454627488634, "alt_km": 409.2525763724807, "timestamp": "2025-12-27T16:33:28.974559+00:00", "meta": {"OBJECT_NAME": "STARLINK-36089", "OBJECT_ID": "2025-286Y", "EPOCH": "2025-12-27T12:00:02.000160", "MEAN_MOTION": 15.50941002, "ECCENTRICITY": 0.0001536, "INCLINATION": 53.1594, "RA_OF_ASC_NODE": 337.0922, "ARG_OF_PERICENTER": 74.6931, "MEAN_ANOMALY": 57.0444, "EPHEMERIS_TYPE": 0, "CLASSIFICATION_TYPE": "U", "NORAD_CAT_ID": 66947, "ELEMENT_SET_NO": 999, "REV_AT_EPOCH": 436, "BSTAR": -0.038722, "MEAN_MOTION_DOT": -0.02035291, "MEAN_MOTION_DDOT": 0}, "tle": {"line1": "1 66947U 25286Y   25361.50002315 -.02035291  00000+0 -38722-1 0  9994", "line2": "2 66947  53.1594 337.0922 0001536  74.6931  57.0444 15.50941002  4366"}}, "geometry": {"type": "Point", "coordinates": [100.61454627488634, 47.72922800583932]}}, {"type": "Feature", "properties": {"norad_id": 66948, "name": "STARLINK-36116", "group": "last-30-days", "lat": 48.56884285845923, "lon": 98.03127436994468, "alt_km": 409.2151990285165, "timestamp": "2025-12-27T16:33:28.974568+00:00", "meta": {"OBJECT_NAME": "STARLINK-36116", "OBJECT_ID": "2025-286Z", "EPOCH": "2025-12-27T12:00:02.000160", "MEAN_MOTION": 15.50947265, "ECCENTRICITY": 0.0001402, "INCLINATION": 53.1593, "RA_OF_ASC_NODE": 337.0965, "ARG_OF_PERICENTER": 70.789, "MEAN_ANOMALY": 59.0293, "EPHEMERIS_TYPE": 0, "CLASSIFICATION_TYPE": "U", "NORAD_CAT_ID": 66948, "ELEMENT_SET_NO": 999, "REV_AT_EPOCH": 436, "BSTAR": -0.038876, "MEAN_MOTION_DOT": -0.02042817, "MEAN_MOTION_DDOT": 0}, "tle": {"line1": "1 66948U 25286Z   25361.50002315 -.02042817  00000+0 -38876-1 0  9997", "line2": "2 66948  53.1593 337.0965 0001402  70.7890  59.0293 15.50947265  4367"}}, "geometry": {"type": "Point", "coordinates": [98.03127436994468, 48.56884285845923]}}, {"type": "Feature", "properties": {"norad_id": 66949, "name": "STARLINK-36096", "group": "last-30-days", "lat": 46.82832725807274, "lon": 103.12653579188388, "alt_km": 409.6152314694082, "timestamp": "2025-12-27T16:33:28.974578+00:00", "meta": {"OBJECT_NAME": "STARLINK-36096", "OBJECT_ID": "2025-286AA", "EPOCH": "2025-12-27T12:00:02.000160", "MEAN_MOTION": 15.50970404, "ECCENTRICITY": 0.000164, "INCLINATION": 53.1595, "RA_OF_ASC_NODE": 337.0881, "ARG_OF_PERICENTER": 54.6498, "MEAN_ANOMALY": 78.9987, "EPHEMERIS_TYPE": 0, "CLASSIFICATION_TYPE": "U", "NORAD_CAT_ID": 66949, "ELEMENT_SET_NO": 999, "REV_AT_EPOCH": 436, "BSTAR": -0.039949, "MEAN_MOTION_DOT": -0.02094661, "MEAN_MOTION_DDOT": 0}, "tle": {"line1": "1 66949U 25286AA  25361.50002315 -.02094661  00000+0 -39949-1 0  9994", "line2": "2 66949  53.1595 337.0881 0001640  54.6498  78.9987 15.50970404  4367"}}, "geometry": {"type": "Point", "coordinates": [103.12653579188388, 46.82832725807274]}}]}